HST                     
1 20580U 90037B   24030.47762267  .00005751  00000+0  28386-3 0  9991
2 20580  28.4669 192.9980 0002316 336.1557  23.8928 15.15735873656219
POLAR                   
1 23802U 96013A   24029.49887686  .00000295  00000+0  00000+0 0  9991
2 23802  79.0253 235.9717 5815515 238.5420  51.9458  1.29846953133568
SWAS                    
1 25560U 98071A   24030.14165786  .00004856  00000+0  40895-3 0  9991
2 25560  69.8990 291.4288 0006119 173.9727 186.1506 14.98856482366803
CXO                     
1 25867U 99040B   24033.00810059  .00000752  00000+0  00000+0 0  9997
2 25867  38.5764 167.8442 8991203 286.0130   0.5394  0.37812923 25202
XMM-NEWTON              
1 25989U 99066A   24029.23662382  .00000125  00000+0  00000+0 0  9998
2 25989  68.3155 294.9690 5287837  79.2184  72.8923  0.50137216 18659
TERRA                   
1 25994U 99068A   24030.49311373  .00000760  00000+0  16931-3 0  9996
2 25994  98.0676  97.9658 0003086  83.6074  41.7365 14.59563983282939
CLUSTER II-FM7 (SAMBA)  
1 26410U 00041A   24029.12143197  .00000596  00000+0  00000+0 0  9991
2 26410 137.9529 355.5497 7119097 210.2534 359.0712  0.44191048 16421
CLUSTER II-FM6 (SALSA)  
1 26411U 00041B   24015.54795873  .00002824  00000+0  00000+0 0  9993
2 26411 145.1481  11.4032 8707777 225.6856 359.0940  0.44218190 16420
CLUSTER II-FM5 (RUMBA)  
1 26463U 00045A   24031.37738962  .00002443  00000+0  00000+0 0  9996
2 26463 147.8866  10.1450 8246550 225.1891 359.1558  0.44217787 16364
CLUSTER II-FM8 (TANGO)  
1 26464U 00045B   24031.38349906  .00000702  00000+0  00000+0 0  9990
2 26464 137.9752 355.5844 7119864 210.3074 359.1989  0.44219994 16446
ODIN                    
1 26702U 01007A   24030.01768535  .00009474  00000+0  45880-3 0  9990
2 26702  97.4928  46.1246 0009871  54.9004 305.3154 15.18728850256366
TIMED                   
1 26998U 01055B   24030.49508212  .00002375  00000+0  24588-3 0  9991
2 26998  74.0717 178.5614 0002258 268.8833  91.2090 14.90688180201299
INTEGRAL                
1 27540U 02048A   24030.31363201 -.00000207  00000+0  00000+0 0  9998
2 27540  87.6206  27.4143 8688009 285.8318 321.0547  0.37582240 23361
CORIOLIS                
1 27640U 03001A   24030.50203127  .00000227  00000+0  12844-3 0  9994
2 27640  98.7156  39.9338 0014002 190.1647 169.9248 14.19388911 90921
SORCE                   
1 27651U 03004A   24029.76351032  .00004049  00000+0  38682-3 0  9998
2 27651  39.9930 147.4228 0020402 326.4622  33.4877 14.93797645141381
MOST                    
1 27843U 03031D   24030.47721887  .00000156  00000+0  92221-4 0  9995
2 27843  98.7083  39.4387 0009043 236.7329 123.2982 14.20894321 67322
SCISAT 1                
1 27858U 03036A   24030.20055722  .00001171  00000+0  16405-3 0  9992
2 27858  73.9321  94.7844 0008254 345.5146  14.5791 14.78777571102879
SWIFT                   
1 28485U 04047A   24030.42481716  .00011868  00000+0  58574-3 0  9999
2 28485  20.5570  91.6398 0008283 287.0274  72.9254 15.15269719 53222
CLOUDSAT                
1 29107U 06016A   24030.12235567  .00001326  00000+0  22727-3 0  9996
2 29107  98.4023   9.2532 0004744 269.0219  91.0443 14.70507533945752
CALIPSO                 
1 29108U 06016B   24030.54583760  .00002035  00000+0  38832-3 0  9996
2 29108  98.4045   9.1623 0001523  88.0464 272.0913 14.65094902945668
HINODE (SOLAR-B)        
1 29479U 06041A   24030.06040642  .00001061  00000+0  20195-3 0  9990
2 29479  98.0974  47.3247 0018583 156.9116 203.2927 14.66010735927401
SJ-6C                   
1 29505U 06046A   24030.41003657  .00006216  00000+0  48660-3 0  9993
2 29505  97.7407  57.9233 0004740 250.5174 109.5539 15.01377619941326
SJ-6D                   
1 29506U 06046B   24030.47682360  .00003039  00000+0  27261-3 0  9998
2 29506  97.7531  56.6756 0003270  68.3995 291.7574 14.96493747940588
AGILE                   
1 31135U 07013A   24030.04166667  .00484974  57324-4  88511-3 0  9996
2 31135   2.4638 139.6594 0000801 138.8573  29.1277 15.99631512936445
FGRST (GLAST)           
1 33053U 08029A   24029.57810413  .00004433  00000+0  21059-3 0  9992
2 33053  25.5834  87.1727 0011052 203.3268 156.6767 15.15664556863366
WISE                    
1 36119U 09071A   24030.17420217  .00027873  00000+0  45999-3 0  9995
2 36119  97.1701  66.1274 0000526  26.0130 334.1150 15.52240800786621
SDO                     
1 36395U 10005A   24029.18472852 -.00000071  00000+0  00000+0 0  9993
2 36395  32.8337  99.7872 0003313 231.3904 120.8184  1.00277810 51330
CRYOSAT 2               
1 36508U 10013A   24030.13807816  .00000229  00000+0  56113-4 0  9992
2 36508  92.0273  67.3293 0004948  59.7842 300.3855 14.51898526732024
X-SAT                   
1 37389U 11015C   24030.48916578  .00000151  00000+0  82263-4 0  9996
2 37389  98.2957  42.1041 0014479  19.2444 340.9280 14.24620466664482
GCOM-W1 (SHIZUKU)       
1 38337U 12025A   24030.44312751  .00001114  00000+0  25698-3 0  9999
2 38337  98.2262 332.5170 0001339  64.9349  47.9854 14.57154372622519
NUSTAR                  
1 38358U 12031A   24006.08911773  .00004826  00000+0  37127-3 0  9994
2 38358   6.0246 180.9305 0011284 278.2199  81.6651 14.94064807629835
NEOSSAT                 
1 39089U 13009D   24030.50779816  .00000345  00000+0  13604-3 0  9992
2 39089  98.4028 221.5092 0010495 320.3082  39.7334 14.35044268572123
BRITE-AUSTRIA           
1 39091U 13009F   24030.49881807  .00000371  00000+0  14342-3 0  9996
2 39091  98.3840 221.8564 0009654 318.6822  41.3633 14.35668943572371
IRIS                    
1 39197U 13033A   24030.52219247  .00002539  00000+0  33048-3 0  9999
2 39197  97.9641 221.9218 0025205 271.6718  88.1608 14.81322478571574
HISAKI (SPRINT-A)       
1 39253U 13049A   24030.09842294  .00000143  00000+0  10356-3 0  9991
2 39253  29.7213 317.9480 0137190 171.9048 188.3774 13.55369250514468
CASSIOPE                
1 39265U 13055A   24029.84795858  .00036644  00000+0  82031-3 0  9999
2 39265  80.9604 350.0849 0527071 338.0405  19.8924 14.62495403537970
STSAT-3                 
1 39422U 13066G   24030.47478536  .00002842  00000+0  27264-3 0  9998
2 39422  97.5074  15.9034 0022937 103.3944 256.9835 14.93663427554101
SWARM B                 
1 39451U 13067A   24029.89335420  .00003243  00000+0  15393-3 0  9995
2 39451  87.7453 244.0860 0002538  88.7415 271.4120 15.18918726550840
SWARM A                 
1 39452U 13067B   24029.94363570  .00007569  00000+0  25918-3 0  9998
2 39452  87.3462  13.0685 0002526  92.0718 268.0821 15.30051336572457
SWARM C                 
1 39453U 13067C   24030.46675034  .00007520  00000+0  25744-3 0  9993
2 39453  87.3465  11.4776 0002535  93.0915 267.0625 15.30060243572542
BRITE-CA1 (TORONTO)     
1 40020U 14033L   24030.35003953  .00002336  00000+0  38743-3 0  9995
2 40020  97.8531 172.6160 0084118 174.5691 185.6447 14.68808041514598
OCO 2                   
1 40059U 14035A   24029.86750817  .00000957  00000+0  22224-3 0  9995
2 40059  98.2264 332.6884 0001277 108.0744 252.0594 14.57157383509450
BRITE-PL2 (HEWELIUSZ)   
1 40119U 14049B   24030.18701043  .00002604  00000+0  29000-3 0  9991
2 40119  97.8802 130.6529 0017478 101.0869 259.2313 14.87869467511999
RESURS P2               
1 40360U 14087A   24030.46504708  .00021920  00000+0  37129-3 0  9994
2 40360  97.1616 116.9635 0008481  92.0515 268.1709 15.51515236509505
MMS 1                   
1 40482U 15011A   24030.58334491 -.00001952  00000+0  00000+0 0  9998
2 40482  39.0821  24.7623 9164558 134.8449   5.3368  0.28262129 14987
MMS 2                   
1 40483U 15011B   24030.58334491 -.00001951  00000+0  00000+0 0  9998
2 40483  39.0856  24.7681 9164268 134.8262   5.3516  0.28275573 14961
MMS 3                   
1 40484U 15011C   24030.58334491 -.00001951  00000+0  00000+0 0  9999
2 40484  39.0808  24.7653 9163681 134.8321   5.3408  0.28275276 14962
MMS 4                   
1 40485U 15011D   24030.58334491 -.00001952  00000+0  00000+0 0  9991
2 40485  39.0801  24.7615 9164057 134.8387   5.3593  0.28262752 14964
ASTROSAT                
1 40930U 15052A   24006.16340880  .00001943  00000+0  17423-3 0  9997
2 40930   5.9997  85.2473 0008613 282.4744  77.4420 14.78268977447249
DAMPE                   
1 41173U 15078A   24030.45268781  .00002153  00000+0  85266-4 0  9998
2 41173  97.4229  24.6891 0011283 273.0846  86.9101 15.26476653451815
PISAT                   
1 41784U 16059B   24030.01778004  .00001460  00000+0  27661-3 0  9996
2 41784  97.8483  58.3419 0032295  95.4182 265.0707 14.65376976392279
HXMT (HUIYAN)           
1 42758U 17034A   24030.24906543  .00008904  00000+0  47423-3 0  9996
2 42758  43.0162 324.3011 0001498 341.5088  18.5705 15.15423827365771
FLYING LAPTOP           
1 42831U 17042G   24029.86771654  .00003736  00000+0  35280-3 0  9992
2 42831  97.3811 218.9912 0012989 178.7763 181.3493 14.94223431356320
ZHANGZHENG-1 (CSES)     
1 43194U 18015C   24030.45011563  .00015103  00000+0  67373-3 0  9998
2 43194  97.5887 172.9875 0016802 288.3371  71.6037 15.21365450332605
SALSAT                  
1 46495U 20068K   24029.82417453  .00007676  00000+0  46622-3 0  9993
2 46495  97.7998 346.0448 0016330  71.1435 289.1563 15.10674616183252
IXPE                    
1 49954U 21121A   24006.41326890  .00004809  00000+0  34734-3 0  9997
2 49954   0.2276 159.2181 0010076  26.1569 174.6137 14.96025383113476
